[{"OBJECT_NAME":"TIANPING 2C","OBJECT_ID":"2022-032D","EPOCH":"2026-03-09T22:24:23.522112","MEAN_MOTION":15.10225163,"ECCENTRICITY":0.00079422,"INCLINATION":97.5961,"RA_OF_ASC_NODE":122.1196,"ARG_OF_PERICENTER":128.8925,"MEAN_ANOMALY":231.3013,"EPHEMERIS_TYPE":0,"CLASSIFICATION_TYPE":"U","NORAD_CAT_ID":52156,"ELEMENT_SET_NO":999,"REV_AT_EPOCH":21586,"BSTAR":0.00036090623,"MEAN_MOTION_DOT":5.841e-5,"MEAN_MOTION_DDOT":0},{"OBJECT_NAME":"STARLINK-4761","OBJECT_ID":"2022-114N","EPOCH":"2026-03-09T21:17:31.927776","MEAN_MOTION":15.08837436,"ECCENTRICITY":0.00013243,"INCLINATION":53.2178,"RA_OF_ASC_NODE":303.0624,"ARG_OF_PERICENTER":85.6839,"MEAN_ANOMALY":274.4305,"EPHEMERIS_TYPE":0,"CLASSIFICATION_TYPE":"U","NORAD_CAT_ID":53830,"ELEMENT_SET_NO":999,"REV_AT_EPOCH":19286,"BSTAR":-0.00022674028,"MEAN_MOTION_DOT":-3.894e-5,"MEAN_MOTION_DDOT":0}]
